[{"OBJECT_NAME":"STARLINK-3970","OBJECT_ID":"2022-053BC","EPOCH":"2026-03-09T13:11:20.895360","MEAN_MOTION":15.08840677,"ECCENTRICITY":0.0001085,"INCLINATION":53.2157,"RA_OF_ASC_NODE":134.7499,"ARG_OF_PERICENTER":89.5291,"MEAN_ANOMALY":270.5826,"EPHEMERIS_TYPE":0,"CLASSIFICATION_TYPE":"U","NORAD_CAT_ID":52706,"ELEMENT_SET_NO":999,"REV_AT_EPOCH":21129,"BSTAR":1.3268e-5,"MEAN_MOTION_DOT":-7.7e-7,"MEAN_MOTION_DDOT":0},{"OBJECT_NAME":"CZ-6A DEB","OBJECT_ID":"2024-140KH","EPOCH":"2026-03-09T14:59:57.464160","MEAN_MOTION":15.05079233,"ECCENTRICITY":0.0091207,"INCLINATION":89.0655,"RA_OF_ASC_NODE":284.096,"ARG_OF_PERICENTER":124.4022,"MEAN_ANOMALY":236.5882,"EPHEMERIS_TYPE":0,"CLASSIFICATION_TYPE":"U","NORAD_CAT_ID":60878,"ELEMENT_SET_NO":999,"REV_AT_EPOCH":8457,"BSTAR":0.0027733,"MEAN_MOTION_DOT":0.00043481,"MEAN_MOTION_DDOT":0}]
